[{"OBJECT_NAME":"STARLINK-3806","OBJECT_ID":"2022-045AZ","EPOCH":"2026-03-09T14:31:29.590176","MEAN_MOTION":15.08842574,"ECCENTRICITY":0.0001285,"INCLINATION":53.2176,"RA_OF_ASC_NODE":189.5022,"ARG_OF_PERICENTER":90.0541,"MEAN_ANOMALY":270.0598,"EPHEMERIS_TYPE":0,"CLASSIFICATION_TYPE":"U","NORAD_CAT_ID":52378,"ELEMENT_SET_NO":999,"REV_AT_EPOCH":21591,"BSTAR":2.3998e-5,"MEAN_MOTION_DOT":9.4e-7,"MEAN_MOTION_DDOT":0},{"OBJECT_NAME":"OBJECT D","OBJECT_ID":"2018-099D","EPOCH":"2026-03-09T21:55:11.400096","MEAN_MOTION":15.0608919,"ECCENTRICITY":0.00104801,"INCLINATION":97.4323,"RA_OF_ASC_NODE":113.3477,"ARG_OF_PERICENTER":333.2621,"MEAN_ANOMALY":26.8065,"EPHEMERIS_TYPE":0,"CLASSIFICATION_TYPE":"U","NORAD_CAT_ID":43761,"ELEMENT_SET_NO":999,"REV_AT_EPOCH":39716,"BSTAR":0.0002280609,"MEAN_MOTION_DOT":3.276e-5,"MEAN_MOTION_DDOT":0}]
